EYESAT A (AO-27)        
1 22825U 93061C   26131.42953626  .00000051  00000+0  36531-4 0  9995
2 22825  98.6892 198.8530 0007968 200.8047 159.2813 14.30931976701749
ITAMSAT (IO-26)         
1 22826U 93061D   26131.41989264  .00000042  00000+0  32539-4 0  9996
2 22826  98.6841 198.7571 0008801 184.3139 175.7969 14.31357848702054
RADIO ROSTO (RS15)      
1 23439U 94085A   26131.31001264 -.00000046  00000+0 -94613-4 0  9995
2 23439  64.8195   2.8586 0154917  10.6206 349.7930 11.27583723291744
JAS-2 (FO-29)           
1 24278U 96046B   26131.19510852 -.00000039  00000+0 -39487-5 0  9991
2 24278  98.5281 345.1264 0349635 192.2765 166.9689 13.53272291468160
FORTE                   
1 24920U 97047A   26131.38882161  .00000127  00000+0  74352-4 0  9998
2 24920  69.9519  97.1367 0023587 322.4099  37.5373 14.27929372493432
TECHSAT 1B (GO-32)      
1 25397U 98043D   26131.46769300  .00000042  00000+0  38135-4 0  9997
2 25397  99.0063 123.3024 0001087  16.1733 343.9480 14.24421068446105
ISS (ZARYA)             
1 25544U 98067A   26131.42478727  .00005147  00000+0  10088-3 0  9990
2 25544  51.6311 122.0798 0007465  47.2886 312.8730 15.49184061566050
IMAGE                   
1 26113U 00017A   26131.51486742  .00000008  00000+0 -20584-1 0  9999
2 26113  94.2002 314.8870 7459904 291.9767   8.1989  1.68665748160881
CLUSTER II-FM7 (SAMBA)  
1 26410U 00041A   26130.20719946  .00003007  00000+0  00000+0 0  9996
2 26410 149.7574  44.0320 9007788 260.7661   0.4598  0.44818912 20131
CLUSTER II-FM8 (TANGO)  
1 26464U 00045B   26130.14160082  .00003120  00000+0  00000+0 0  9999
2 26464 150.0346  45.1293 9013438 261.7017   0.4740  0.44409144 20129
ODIN                    
1 26702U 01007A   26131.06681220  .00076814  00000+0  75319-3 0  9996
2 26702  97.3932 169.9225 0001720 201.6161 158.5026 15.65841377383573
OMNI-M1                 
1 26857U 01026A   26131.28271515 -.00000020  00000+0  00000+0 0  9992
2 26857  44.8445 253.7701 0015499  47.0296 313.1212  3.92401507204123
PCSAT (NO-44)           
1 26931U 01043C   26131.28075645  .00000077  00000+0  59746-4 0  9997
2 26931  67.0514 339.7293 0006301 263.7235  96.3149 14.31941472285160
PROBA-1                 
1 26958U 01049B   26131.49472939  .00002156  00000+0  14270-3 0  9994
2 26958  97.9613 138.7488 0053780 246.5942 112.9623 15.07359275338092
SAUDISAT 1C (SO-50)     
1 27607U 02058C   26131.40363782  .00000664  00000+0  96093-4 0  9999
2 27607  64.5523 242.7840 0075631 269.1895  90.0545 14.82967825259009
CORIOLIS                
1 27640U 03001A   26131.27339432  .00000076  00000+0  56185-4 0  9990
2 27640  98.7137 138.7209 0013250 323.4331  36.5940 14.19934433208981
CUTE-1 (CO-55)          
1 27844U 03031E   26131.01616769  .00000204  00000+0  10731-3 0  9991
2 27844  98.6748 140.0418 0008393 297.0013  63.0309 14.24312209186387
CUBESAT XI-IV (CO-57)   
1 27848U 03031J   26131.47801683  .00000163  00000+0  90730-4 0  9998
2 27848  98.6780 140.2400 0008542 316.3699  43.6804 14.23600673186154
MOZHAETS 4 (RS22)       
1 27939U 03042A   26131.54684436  .00000328  00000+0  58893-4 0  9991
2 27939  98.3476 314.8729 0011943  30.7327  61.1047 14.73400717210155
SAUDISAT 2              
1 28371U 04025F   26131.41734525  .00000176  00000+0  50243-4 0  9997
2 28371  98.5511 130.4506 0025694  51.6177 308.7322 14.56660863160393
