OBJECT_NAME,OBJECT_ID,EPOCH,MEAN_MOTION,ECCENTRICITY,INCLINATION,RA_OF_ASC_NODE,ARG_OF_PERICENTER,MEAN_ANOMALY,EPHEMERIS_TYPE,CLASSIFICATION_TYPE,NORAD_CAT_ID,ELEMENT_SET_NO,REV_AT_EPOCH,BSTAR,MEAN_MOTION_DOT,MEAN_MOTION_DDOT
EYESAT A (AO-27),1993-061C,2026-05-11T10:18:31.932864,14.30931976,.0007968,98.6892,198.8530,200.8047,159.2813,0,U,22825,999,70174,.36531E-4,.51E-6,0
ITAMSAT (IO-26),1993-061D,2026-05-11T10:04:38.724096,14.31357848,.0008801,98.6841,198.7571,184.3139,175.7969,0,U,22826,999,70205,.32539E-4,.42E-6,0
RADIO ROSTO (RS15),1994-085A,2026-05-11T07:26:25.092096,11.27583723,.0154917,64.8195,2.8586,10.6206,349.7930,0,U,23439,999,29174,-.94613E-4,-.46E-6,0
JAS-2 (FO-29),1996-046B,2026-05-11T04:40:57.376128,13.53272291,.0349635,98.5281,345.1264,192.2765,166.9689,0,U,24278,999,46816,-.39487E-5,-.39E-6,0
FORTE,1997-047A,2026-05-11T09:19:54.187104,14.27929372,.0023587,69.9519,97.1367,322.4099,37.5373,0,U,24920,999,49343,.74352E-4,.127E-5,0
TECHSAT 1B (GO-32),1998-043D,2026-05-11T11:13:28.675200,14.24421068,.0001087,99.0063,123.3024,16.1733,343.9480,0,U,25397,999,44610,.38135E-4,.42E-6,0
ISS (ZARYA),1998-067A,2026-05-11T10:11:41.620128,15.49184061,.0007465,51.6311,122.0798,47.2886,312.8730,0,U,25544,999,56605,.10088E-3,.5147E-4,0
IMAGE,2000-017A,2026-05-11T12:21:24.545088,1.68665748,.7459904,94.2002,314.8870,291.9767,8.1989,0,U,26113,999,16088,-.20584E-1,.8E-7,0
CLUSTER II-FM7 (SAMBA),2000-041A,2026-05-10T04:58:22.033344,0.44818912,.90077886,149.7574,44.0320,260.7661,0.4598,0,U,26410,999,2013,0,.3007E-4,0
CLUSTER II-FM8 (TANGO),2000-045B,2026-05-10T03:23:54.310848,0.44409144,.90134383,150.0346,45.1293,261.7017,0.4740,0,U,26464,999,2012,0,.312E-4,0
ODIN,2001-007A,2026-05-11T01:36:12.574080,15.65841377,.000172,97.3932,169.9225,201.6161,158.5026,0,U,26702,999,38357,.75319E-3,.76814E-3,0
OMNI-M1,2001-026A,2026-05-11T06:47:06.588960,3.92401507,.0015499,44.8445,253.7701,47.0296,313.1212,0,U,26857,999,20412,0,-.2E-6,0
PCSAT (NO-44),2001-043C,2026-05-11T06:44:17.357280,14.31941472,.0006301,67.0514,339.7293,263.7235,96.3149,0,U,26931,999,28516,.59746E-4,.77E-6,0
PROBA-1,2001-049B,2026-05-11T11:52:24.619296,15.07359275,.005378,97.9613,138.7488,246.5942,112.9623,0,U,26958,999,33809,.1427E-3,.2156E-4,0
SAUDISAT 1C (SO-50),2002-058C,2026-05-11T09:41:14.307648,14.82967825,.0075631,64.5523,242.7840,269.1895,90.0545,0,U,27607,999,25900,.96093E-4,.664E-5,0
CORIOLIS,2003-001A,2026-05-11T06:33:41.269248,14.19934433,.001325,98.7137,138.7209,323.4331,36.5940,0,U,27640,999,20898,.56185E-4,.76E-6,0
CUTE-1 (CO-55),2003-031E,2026-05-11T00:23:16.888416,14.24312209,.0008393,98.6748,140.0418,297.0013,63.0309,0,U,27844,999,18638,.10731E-3,.204E-5,0
CUBESAT XI-IV (CO-57),2003-031J,2026-05-11T11:28:20.654112,14.23600673,.0008542,98.6780,140.2400,316.3699,43.6804,0,U,27848,999,18615,.9073E-4,.163E-5,0
MOZHAETS 4 (RS22),2003-042A,2026-05-11T13:07:27.352704,14.73400717,.0011943,98.3476,314.8729,30.7327,61.1047,0,U,27939,999,21015,.58893E-4,.328E-5,0
SAUDISAT 2,2004-025F,2026-05-11T10:00:58.629600,14.56660863,.0025694,98.5511,130.4506,51.6177,308.7322,0,U,28371,999,16039,.50243E-4,.176E-5,0
